NORAD_CAT_ID,OBJECT_NAME,OBJECT_TYPE,EPOCH,MEAN_MOTION,ECCENTRICITY,INCLINATION,RA_OF_ASC_NODE,ARG_OF_PERICENTER,MEAN_ANOMALY,BSTAR,MEAN_MOTION_DOT,MEAN_MOTION_DDOT,TLE_LINE0,TLE_LINE1,TLE_LINE2,SEMIMAJOR_AXIS,PERIOD,APOGEE,PERIGEE,DECAYED
55957.0,STARLINK-5884,PAYLOAD,2024-03-23 23:16:08,14.98353937,0.0002765,69.9979,269.1007,258.277,101.8079,1.6422e-05,1.03e-06,0.0,0 STARLINK-5884,1 55957U 23037AV  24083.96953801  .00000103  00000-0  16422-4 0  9997,2 55957  69.9979 269.1007 0002765 258.2770 101.8079 14.98353937 57604,6950.119,96.105,573.906,570.062,0.0
55957.0,STARLINK-5884,PAYLOAD,2024-03-24 13:41:21,14.98335714,0.0002849,69.9984,267.5855,270.6309,89.4524,-5.5943e-05,-7.61e-06,0.0,0 STARLINK-5884,1 55957U 23037AV  24084.57039062 -.00000761  00000-0 -55943-4 0  9992,2 55957  69.9984 267.5855 0002849 270.6309  89.4524 14.98335714 57690,6950.175,96.107,574.02,570.06,0.0
55957.0,STARLINK-5884,PAYLOAD,2024-03-24 21:42:02,14.98334102,0.0002925,69.9985,266.7442,270.8127,89.2697,-6.5553e-05,-8.75e-06,0.0,0 STARLINK-5884,1 55957U 23037AV  24084.90419068 -.00000875  00000-0 -65553-4 0  9991,2 55957  69.9985 266.7442 0002925 270.8127  89.2697 14.98334102 57407,6950.18,96.107,574.078,570.012,0.0
55957.0,STARLINK-5884,PAYLOAD,2024-03-25 13:43:22,14.98340634,0.0002941,69.9986,265.0621,272.0975,87.9847,-5.9635e-05,-8.05e-06,0.0,0 STARLINK-5884,1 55957U 23037AV  24085.57178270 -.00000805  00000-0 -59635-4 0  9999,2 55957  69.9986 265.0621 0002941 272.0975  87.9847 14.98340634 57849,6950.16,96.106,574.069,569.981,0.0
55957.0,STARLINK-5884,PAYLOAD,2024-03-25 21:44:02,14.98341369,0.0002983,69.9989,264.2198,269.9532,90.1286,-3.0594e-05,-4.58e-06,0.0,0 STARLINK-5884,1 55957U 23037AV  24085.90557882 -.00000458  00000-0 -30594-4 0  9993,2 55957  69.9989 264.2198 0002983 269.9532  90.1286 14.98341369 57559,6950.158,96.106,574.096,569.95,0.0
55957.0,STARLINK-5884,PAYLOAD,2024-03-26 13:45:23,14.98322242,0.0002849,70.0011,262.5366,273.9876,86.0957,-2.0632e-05,-3.39e-06,0.0,0 STARLINK-5884,1 55957U 23037AV  24086.57319010 -.00000339  00000-0 -20632-4 0  9996,2 55957  70.0011 262.5366 0002849 273.9876  86.0957 14.98322242 57999,6950.217,96.107,574.062,570.102,0.0
55957.0,STARLINK-5884,PAYLOAD,2024-03-26 21:46:03,14.9832325,0.0002818,69.9995,261.695,269.9336,90.15,-2.518e-05,-3.93e-06,0.0,0 STARLINK-5884,1 55957U 23037AV  24086.90699059 -.00000393  00000-0 -25180-4 0  9990,2 55957  69.9995 261.6950 0002818 269.9336  90.1500 14.98323250 57707,6950.214,96.107,574.037,570.12,0.0
55957.0,STARLINK-5884,PAYLOAD,2024-03-27 13:47:23,14.98334904,0.0002939,69.9995,260.0118,272.5779,87.5043,-1.3441e-05,-2.53e-06,0.0,0 STARLINK-5884,1 55957U 23037AV  24087.57458294 -.00000253  00000-0 -13441-4 0  9990,2 55957  69.9995 260.0118 0002939 272.5779  87.5043 14.98334904 58140,6950.178,96.107,574.085,570.0,0.0
55957.0,STARLINK-5884,PAYLOAD,2024-03-27 21:48:03,14.98337713,0.0002899,69.9996,259.1702,272.5469,87.5358,3.4257e-05,3.16e-06,0.0,0 STARLINK-5884,1 55957U 23037AV  24087.90837881  .00000316  00000-0  34257-4 0  9996,2 55957  69.9996 259.1702 0002899 272.5469  87.5358 14.98337713 57857,6950.169,96.107,574.049,570.019,0.0
55957.0,STARLINK-5884,PAYLOAD,2024-03-28 12:13:16,14.98326659,0.0002909,69.9995,257.6552,272.1415,87.9411,7.6435e-05,8.19e-06,0.0,0 STARLINK-5884,1 55957U 23037AV  24088.50922368  .00000819  00000-0  76435-4 0  9990,2 55957  69.9995 257.6552 0002909 272.1415  87.9411 14.98326659 57942,6950.203,96.107,574.09,570.046,0.0
55957.0,STARLINK-5884,PAYLOAD,2024-03-28 17:01:40,14.98329212,0.0002909,69.9995,257.1503,271.5217,88.5609,8.9652e-05,9.77e-06,0.0,0 STARLINK-5884,1 55957U 23037AV  24088.70950179  .00000977  00000-0  89652-4 0  9993,2 55957  69.9995 257.1503 0002909 271.5217  88.5609 14.98329212 58312,6950.195,96.107,574.082,570.039,0.0
55957.0,STARLINK-5884,PAYLOAD,2024-03-28 21:50:05,14.98329589,0.0002881,69.9996,256.6455,270.6176,89.4653,8.7212e-05,9.48e-06,0.0,0 STARLINK-5884,1 55957U 23037AV  24088.90978160  .00000948  00000-0  87212-4 0  9993,2 55957  69.9996 256.6455 0002881 270.6176  89.4653 14.98329589 58008,6950.194,96.107,574.062,570.057,0.0
55957.0,STARLINK-5884,PAYLOAD,2024-03-29 12:15:17,14.98331751,0.0002779,69.9999,255.1303,267.0636,93.0205,-5.8251e-05,-7.88e-06,0.0,0 STARLINK-5884,1 55957U 23037AV  24089.51062360 -.00000788  00000-0 -58251-4 0  9992,2 55957  69.9999 255.1303 0002779 267.0636  93.0205 14.98331751 58091,6950.187,96.107,573.984,570.121,0.0
55957.0,STARLINK-5884,PAYLOAD,2024-03-29 17:03:41,14.98332443,0.0002782,69.9999,254.6253,267.1086,92.9755,-4.7037e-05,-6.54e-06,0.0,0 STARLINK-5884,1 55957U 23037AV  24089.71090246 -.00000654  00000-0 -47037-4 0  9990,2 55957  69.9999 254.6253 0002782 267.1086  92.9755 14.98332443 58461,6950.185,96.107,573.984,570.117,0.0
55957.0,STARLINK-5884,PAYLOAD,2024-03-30 13:53:26,14.98328352,0.0002927,69.9996,252.4368,267.7464,92.3359,-9.176e-06,-2.02e-06,0.0,0 STARLINK-5884,1 55957U 23037AV  24090.57878326 -.00000202  00000-0 -91760-5 0  9991,2 55957  69.9996 252.4368 0002927 267.7464  92.3359 14.98328352 58253,6950.198,96.107,574.097,570.029,0.0
55957.0,STARLINK-5884,PAYLOAD,2024-03-30 20:17:59,14.98328266,0.0003036,69.9988,251.762,266.0879,93.9933,-4.2402e-05,-5.99e-06,0.0,0 STARLINK-5884,1 55957U 23037AV  24090.84582409 -.00000599  00000-0 -42402-4 0  9992,2 55957  69.9988 251.7620 0003036 266.0879  93.9933 14.98328266 58632,6950.198,96.107,574.173,569.953,0.0
55957.0,STARLINK-5884,PAYLOAD,2024-03-31 12:19:19,14.98332896,0.0003142,69.9991,250.0796,267.3853,92.6946,6.789e-05,7.17e-06,0.0,0 STARLINK-5884,1 55957U 23037AV  24091.51341741  .00000717  00000-0  67890-4 0  9997,2 55957  69.9991 250.0796 0003142 267.3853  92.6946 14.98332896 58731,6950.184,96.107,574.233,569.865,0.0
55957.0,STARLINK-5884,PAYLOAD,2024-03-31 13:55:27,14.98333038,0.0003145,69.9992,249.9112,267.3697,92.7102,6.8333e-05,7.22e-06,0.0,0 STARLINK-5884,1 55957U 23037AV  24091.58017717  .00000722  00000-0  68333-4 0  9996,2 55957  69.9992 249.9112 0003145 267.3697  92.7102 14.98333038 58408,6950.183,96.107,574.234,569.863,0.0
55957.0,STARLINK-5884,PAYLOAD,2024-03-31 20:19:59,14.98336814,0.0003165,69.9996,249.2389,268.8504,91.2292,7.5892e-05,8.13e-06,0.0,0 STARLINK-5884,1 55957U 23037AV  24091.84721396  .00000813  00000-0  75892-4 0  9999,2 55957  69.9996 249.2389 0003165 268.8504  91.2292 14.98336814 58449,6950.172,96.107,574.237,569.837,0.0
55957.0,STARLINK-5884,PAYLOAD,2024-04-01 04:20:40,14.98326696,0.0003133,69.9996,248.3968,269.079,91.001,3.5403e-06,-5.1e-07,0.0,0 STARLINK-5884,1 55957U 23037AV  24092.18102154 -.00000051  00000-0  35403-5 0  9992,2 55957  69.9996 248.3968 0003133 269.0790  91.0010 14.98326696 58833,6950.203,96.107,574.246,569.891,0.0
55957.0,STARLINK-5884,PAYLOAD,2024-04-01 12:21:21,14.9832255,0.0003104,69.9997,247.5553,268.8479,91.2324,-4.3105e-05,-6.07e-06,0.0,0 STARLINK-5884,1 55957U 23037AV  24092.51482653 -.00000607  00000-0 -43105-4 0  9999,2 55957  69.9997 247.5553 0003104 268.8479  91.2324 14.98322550 58547,6950.216,96.107,574.238,569.924,0.0
55957.0,STARLINK-5884,PAYLOAD,2024-04-02 12:23:21,14.98332392,0.0002995,70.0002,245.0307,270.0704,90.0112,-5.0597e-05,-6.97e-06,0.0,0 STARLINK-5884,1 55957U 23037AV  24093.51622160 -.00000697  00000-0 -50597-4 0  9991,2 55957  70.0002 245.0307 0002995 270.0704  90.0112 14.98332392 59032,6950.185,96.107,574.132,569.969,0.0
55957.0,STARLINK-5884,PAYLOAD,2024-04-02 20:24:01,14.98335456,0.0002984,70.0002,244.1891,270.2498,89.8319,-1.5704e-05,-2.8e-06,0.0,0 STARLINK-5884,1 55957U 23037AV  24093.85001801 -.00000280  00000-0 -15704-4 0  9990,2 55957  70.0002 244.1891 0002984 270.2498  89.8319 14.98335456 58746,6950.176,96.107,574.115,569.967,0.0
55957.0,STARLINK-5884,PAYLOAD,2024-04-03 12:25:22,14.98328127,0.0002946,70.0002,242.506,271.4939,88.5883,5.4304e-05,5.55e-06,0.0,0 STARLINK-5884,1 55957U 23037AV  24094.51762037  .00000555  00000-0  54304-4 0  9991,2 55957  70.0002 242.5060 0002946 271.4939  88.5883 14.98328127 58847,6950.199,96.107,574.111,570.016,0.0
55957.0,STARLINK-5884,PAYLOAD,2024-04-03 20:26:02,14.98329729,0.0002948,70.0003,241.6648,269.7515,90.3306,4.8027e-05,4.8e-06,0.0,0 STARLINK-5884,1 55957U 23037AV  24094.85141948  .00000480  00000-0  48027-4 0  9992,2 55957  70.0003 241.6648 0002948 269.7515  90.3306 14.98329729 59236,6950.194,96.107,574.108,570.01,0.0
55957.0,STARLINK-5884,PAYLOAD,2024-04-04 15:39:39,14.983317,0.0002906,70.0004,239.6448,268.0252,92.0574,-1.0238e-05,-2.15e-06,0.0,0 STARLINK-5884,1 55957U 23037AV  24095.65253901 -.00000215  00000-0 -10238-4 0  9995,2 55957  70.0004 239.6448 0002906 268.0252  92.0574 14.98331700 59010,6950.188,96.107,574.072,570.033,0.0
55957.0,STARLINK-5884,PAYLOAD,2024-04-04 18:51:55,14.9833204,0.0002902,70.0004,239.3082,268.0767,92.006,-5.8138e-06,-1.62e-06,0.0,0 STARLINK-5884,1 55957U 23037AV  24095.78605848 -.00000162  00000-0 -58138-5 0  9993,2 55957  70.0004 239.3082 0002902 268.0767  92.0060 14.98332040 59038,6950.187,96.107,574.069,570.035,0.0
55957.0,STARLINK-5884,PAYLOAD,2024-04-05 12:29:24,14.98331741,0.0002935,70.0004,237.4567,268.2358,91.8464,1.5873e-06,-7.4e-07,0.0,0 STARLINK-5884,1 55957U 23037AV  24096.52041693 -.00000074  00000-0  15873-5 0  9998,2 55957  70.0004 237.4567 0002935 268.2358  91.8464 14.98331741 59480,6950.188,96.107,574.092,570.013,0.0
55957.0,STARLINK-5884,PAYLOAD,2024-04-05 15:41:39,14.98334531,0.0002919,70.0005,237.12,267.7177,92.3648,3.3061e-05,3.02e-06,0.0,0 STARLINK-5884,1 55957U 23037AV  24096.65393396  .00000302  00000-0  33061-4 0  9993,2 55957  70.0005 237.1200 0002919 267.7177  92.3648 14.98334531 59162,6950.179,96.107,574.073,570.015,0.0
55957.0,STARLINK-5884,PAYLOAD,2024-04-05 18:53:56,14.98334223,0.0002923,70.0005,236.7834,267.5914,92.4911,2.8182e-05,2.43e-06,0.0,0 STARLINK-5884,1 55957U 23037AV  24096.78745388  .00000243  00000-0  28182-4 0  9991,2 55957  70.0005 236.7834 0002923 267.5914  92.4911 14.98334223 59186,6950.18,96.107,574.076,570.013,0.0
